OBJECT_NAME,OBJECT_ID,EPOCH,MEAN_MOTION,ECCENTRICITY,INCLINATION,RA_OF_ASC_NODE,ARG_OF_PERICENTER,MEAN_ANOMALY,EPHEMERIS_TYPE,CLASSIFICATION_TYPE,NORAD_CAT_ID,ELEMENT_SET_NO,REV_AT_EPOCH,BSTAR,MEAN_MOTION_DOT,MEAN_MOTION_DDOT
STARLINK-37867,2026-143N,2026-07-07T10:00:05.000256,15.71231570,.000143,97.2849,232.3501,78.1453,301.3813,0,U,69661,999,361,-.22066E-1,-.2391431E-1,0
STARLINK-37852,2026-143P,2026-07-07T10:00:05.000256,15.64426448,.0001708,97.2854,232.3094,105.0399,173.2649,0,U,69662,999,361,-.27897E-1,-.2350988E-1,0
STARLINK-37554,2026-143Q,2026-07-07T10:00:05.000256,15.69304555,.0001021,97.2848,232.3330,60.3565,283.5042,0,U,69663,999,365,-.12609E-1,-.1310978E-1,0
STARLINK-37830,2026-143R,2026-07-07T10:00:05.000256,15.66732256,.0001306,97.2853,232.3172,107.4996,200.5989,0,U,69664,999,360,-.27097E-1,-.248532E-1,0
STARLINK-37837,2026-143S,2026-07-07T10:00:05.000256,15.71549684,.0001355,97.2849,232.3405,75.6085,284.8103,0,U,69665,999,361,-.17472E-1,-.1975049E-1,0
STARLINK-37943,2026-143T,2026-07-07T10:00:05.000256,15.63768816,.0001591,97.2848,232.3197,104.8396,200.7855,0,U,69666,999,361,-.96624E-2,-.81644E-2,0
STARLINK-37941,2026-143U,2026-07-07T10:00:05.000256,15.68535261,.0001109,97.2849,232.3318,105.3270,236.8755,0,U,69667,999,361,-.83089E-2,-.847305E-2,0
STARLINK-37930,2026-143V,2026-07-07T10:00:05.000256,15.66467155,.0001054,97.2854,232.3291,105.3096,224.5588,0,U,69668,999,360,-.68437E-2,-.656537E-2,0
STARLINK-37945,2026-143W,2026-07-07T10:00:05.000256,15.72104960,.0001473,97.2848,232.3491,90.7022,291.6891,0,U,69669,999,361,-.22282E-1,-.2546481E-1,0
STARLINK-37948,2026-143X,2026-07-07T10:00:05.000256,15.55475171,.0001304,97.2855,232.3069,79.8546,197.7553,0,U,69670,999,361,-.43431E-1,-.2615126E-1,0
STARLINK-37949,2026-143Y,2026-07-07T10:00:05.000256,15.62614864,.0001197,97.2850,232.3368,82.2464,261.6899,0,U,69671,999,361,-.84599E-2,-.693491E-2,0
STARLINK-37946,2026-143Z,2026-07-07T10:00:05.000256,15.68180505,.0001396,97.2846,232.3509,75.8832,307.4316,0,U,69672,999,361,-.24739E-1,-.2417033E-1,0
TJS-26A,2026-144A,2026-06-23T07:54:55.514880,2.27958502,.73145613,19.5157,324.7456,179.7910,181.1077,0,U,69674,999,2,.31526459E-3,.963E-4,-.166614E-6
STARLINK-38005,2026-145A,2026-07-07T10:13:53.353344,15.75375757,.0001236,97.2849,34.8789,75.7123,284.4279,0,U,69677,999,195,.10938E-2,.167598E-2,0
STARLINK-38009,2026-145B,2026-07-07T10:11:20.713056,15.75395580,.0001178,97.2844,34.8810,94.8477,265.2922,0,U,69678,999,195,.12129E-2,.186438E-2,0
STARLINK-37998,2026-145C,2026-07-07T11:39:14.589792,15.75452053,.0001196,97.2852,34.9520,56.2788,303.8592,0,U,69679,999,196,.12604E-2,.194401E-2,0
STARLINK-37994,2026-145D,2026-07-07T10:09:48.773088,15.75419163,.0001081,97.2860,34.8840,59.7315,300.4057,0,U,69680,999,195,.13097E-2,.201893E-2,0
STARLINK-37992,2026-145E,2026-07-07T10:09:19.528416,15.75377994,.000171,97.2848,34.8834,66.0334,294.1110,0,U,69681,999,195,.1198E-2,.183951E-2,0
STARLINK-37997,2026-145F,2026-07-07T10:08:18.367584,15.75359830,.0001597,97.2848,34.8839,96.4645,263.6802,0,U,69682,999,195,.10369E-2,.158602E-2,0
STARLINK-37990,2026-145G,2026-07-07T10:08:48.288768,15.75394447,.0001286,97.2841,34.8832,90.6496,269.4917,0,U,69683,999,195,.12039E-2,.185016E-2,0
STARLINK-37951,2026-145H,2026-07-07T10:07:16.531104,15.75408794,.000104,97.2851,34.8852,98.6982,261.4401,0,U,69684,999,195,.13513E-2,.208391E-2,0
STARLINK-37957,2026-145J,2026-07-07T10:05:45.572640,15.75383484,.0001447,97.2842,34.8863,90.2743,269.8688,0,U,69685,999,195,.11577E-2,.177669E-2,0
STARLINK-37968,2026-145K,2026-07-07T09:57:07.335072,15.75354898,.0000808,97.2852,34.8960,110.4431,249.6921,0,U,69686,999,195,.95919E-3,.146459E-2,0
STARLINK-37977,2026-145L,2026-07-07T09:56:05.023392,15.75453100,.0000759,97.2857,34.8969,110.6882,249.4465,0,U,69687,999,195,.14882E-2,.23056E-2,0
STARLINK-37908,2026-145M,2026-07-07T10:00:05.000256,15.75141503,.0000869,97.2863,34.9058,93.7930,293.8509,0,U,69688,999,318,.4018E-3,.60096E-3,0
STARLINK-37979,2026-145N,2026-07-07T10:00:05.000256,15.75169863,.0001528,97.2863,34.9062,88.4081,301.2161,0,U,69689,999,318,.17029E-3,.25324E-3,0
STARLINK-37940,2026-145P,2026-07-07T09:51:01.825056,15.75354595,.0002009,97.2846,34.9010,106.2880,253.8606,0,U,69690,999,195,.99934E-3,.152712E-2,0
STARLINK-37961,2026-145Q,2026-07-07T10:00:05.000256,15.75175435,.000133,97.2860,34.9163,89.3737,324.2448,0,U,69691,999,318,.99595E-4,.14742E-3,0
STARLINK-37787,2026-145R,2026-07-07T10:00:05.000256,15.75185093,.0001347,97.2851,34.9228,68.9549,356.6710,0,U,69692,999,318,-.18579E-3,-.27745E-3,0
STARLINK-37962,2026-145S,2026-07-07T10:00:05.000256,15.75185146,.0001588,97.2851,34.9272,90.5221,345.1023,0,U,69693,999,318,-.20599E-3,-.30739E-3,0
